{
  "norad_id": 55277,
  "name": "STARLINK-5299",
  "history": [
    {
      "epoch": "2026-03-28T21:45:33.629472Z",
      "apogee_km": 574.0244686761062,
      "perigee_km": 570.0503589462887,
      "latitude_deg": 5.118941601888449e-05,
      "longitude_deg": -156.67216460230395,
      "height_km": 574.4978816174221,
      "semi_major_axis_km": 6950.174413811197,
      "eccentricity": 0.0002859,
      "inclination_deg": 70.0005,
      "raan_deg": 356.0383,
      "arg_perigee_deg": 269.0452,
      "mean_anomaly_deg": 91.038,
      "mean_motion_rev_day": 14.98335975
    },
    {
      "epoch": "2026-03-29T04:10:05.540736Z",
      "apogee_km": 573.9895838208513,
      "perigee_km": 570.0613519939898,
      "latitude_deg": -2.0023619672481718e-05,
      "longitude_deg": 106.25824337056314,
      "height_km": 574.473350682363,
      "semi_major_axis_km": 6950.16246790742,
      "eccentricity": 0.0002826,
      "inclination_deg": 70.0005,
      "raan_deg": 355.3649,
      "arg_perigee_deg": 269.4005,
      "mean_anomaly_deg": 90.683,
      "mean_motion_rev_day": 14.98339838
    },
    {
      "epoch": "2026-03-30T00:59:51.025920Z",
      "apogee_km": 573.9652469669909,
      "perigee_km": 570.1495902311799,
      "latitude_deg": -4.4123328220884754e-05,
      "longitude_deg": 150.77518450139604,
      "height_km": 574.481347159311,
      "semi_major_axis_km": 6950.194418599085,
      "eccentricity": 0.0002745,
      "inclination_deg": 70.0007,
      "raan_deg": 353.1768,
      "arg_perigee_deg": 270.0998,
      "mean_anomaly_deg": 89.9846,
      "mean_motion_rev_day": 14.98329506
    },
    {
      "epoch": "2026-03-30T00:59:51.026784Z",
      "apogee_km": 573.9653859708797,
      "perigee_km": 570.149451227292,
      "latitude_deg": -4.19697092136088e-05,
      "longitude_deg": 150.77518167108715,
      "height_km": 574.4813469181128,
      "semi_major_axis_km": 6950.194418599085,
      "eccentricity": 0.00027452,
      "inclination_deg": 70.0007,
      "raan_deg": 353.1768,
      "arg_perigee_deg": 270.0998,
      "mean_anomaly_deg": 89.9846,
      "mean_motion_rev_day": 14.98329506
    },
    {
      "epoch": "2026-03-30T23:25:44.069664Z",
      "apogee_km": 573.8627477098898,
      "perigee_km": 570.2440615738087,
      "latitude_deg": 4.474560962765406e-05,
      "longitude_deg": 171.02597724294904,
      "height_km": 574.6121026606432,
      "semi_major_axis_km": 6950.190404641849,
      "eccentricity": 0.00026033,
      "inclination_deg": 70.0007,
      "raan_deg": 350.8198,
      "arg_perigee_deg": 265.8294,
      "mean_anomaly_deg": 94.2568,
      "mean_motion_rev_day": 14.98330804
    },
    {
      "epoch": "2026-03-31T10:38:40.548768Z",
      "apogee_km": 574.0008771446055,
      "perigee_km": 570.1322548357048,
      "latitude_deg": -1.2867089263960998e-05,
      "longitude_deg": 1.1520154736974717,
      "height_km": 574.7094925115867,
      "semi_major_axis_km": 6950.203565990155,
      "eccentricity": 0.00027831,
      "inclination_deg": 70.0003,
      "raan_deg": 349.6418,
      "arg_perigee_deg": 263.5988,
      "mean_anomaly_deg": 96.4854,
      "mean_motion_rev_day": 14.98326548
    },
    {
      "epoch": "2026-04-01T10:40:41.280672Z",
      "apogee_km": 574.0841508115082,
      "perigee_km": 570.0349662964945,
      "latitude_deg": -1.984822611669102e-05,
      "longitude_deg": -2.8632576010937454,
      "height_km": 574.4852879742161,
      "semi_major_axis_km": 6950.196558554001,
      "eccentricity": 0.0002913,
      "inclination_deg": 70.0,
      "raan_deg": 347.1166,
      "arg_perigee_deg": 270.0464,
      "mean_anomaly_deg": 90.0361,
      "mean_motion_rev_day": 14.98328814
    },
    {
      "epoch": "2026-04-02T15:31:06.189888Z",
      "apogee_km": 574.0554399642615,
      "perigee_km": 570.0367051080602,
      "latitude_deg": -6.815762464073977e-05,
      "longitude_deg": -79.68148943862835,
      "height_km": 574.4647966946036,
      "semi_major_axis_km": 6950.183072536161,
      "eccentricity": 0.00028911,
      "inclination_deg": 69.9997,
      "raan_deg": 344.0866,
      "arg_perigee_deg": 270.2455,
      "mean_anomaly_deg": 89.8372,
      "mean_motion_rev_day": 14.98333175
    }
  ]
}